[{"OBJECT_NAME":"HAWK-6A","OBJECT_ID":"2023-011D","EPOCH":"2026-03-05T20:47:42.463680","MEAN_MOTION":15.2184249,"ECCENTRICITY":0.00027322,"INCLINATION":40.4979,"RA_OF_ASC_NODE":232.7182,"ARG_OF_PERICENTER":340.8573,"MEAN_ANOMALY":19.2133,"EPHEMERIS_TYPE":0,"CLASSIFICATION_TYPE":"U","NORAD_CAT_ID":55327,"ELEMENT_SET_NO":999,"REV_AT_EPOCH":17210,"BSTAR":0.00033774267,"MEAN_MOTION_DOT":7.652e-5,"MEAN_MOTION_DDOT":0},{"OBJECT_NAME":"HAWK-7A","OBJECT_ID":"2023-054P","EPOCH":"2026-03-06T06:42:46.883520","MEAN_MOTION":15.26149549,"ECCENTRICITY":0.00046964,"INCLINATION":97.2852,"RA_OF_ASC_NODE":315.2322,"ARG_OF_PERICENTER":58.8615,"MEAN_ANOMALY":301.3084,"EPHEMERIS_TYPE":0,"CLASSIFICATION_TYPE":"U","NORAD_CAT_ID":56191,"ELEMENT_SET_NO":999,"REV_AT_EPOCH":16132,"BSTAR":0.00030425949,"MEAN_MOTION_DOT":7.791e-5,"MEAN_MOTION_DDOT":0},{"OBJECT_NAME":"HAWK-7B","OBJECT_ID":"2023-054R","EPOCH":"2026-03-06T05:08:15.196128","MEAN_MOTION":15.26144489,"ECCENTRICITY":0.00038552,"INCLINATION":97.2869,"RA_OF_ASC_NODE":313.3957,"ARG_OF_PERICENTER":68.9042,"MEAN_ANOMALY":291.2609,"EPHEMERIS_TYPE":0,"CLASSIFICATION_TYPE":"U","NORAD_CAT_ID":56193,"ELEMENT_SET_NO":999,"REV_AT_EPOCH":16131,"BSTAR":0.00031264704,"MEAN_MOTION_DOT":8.006e-5,"MEAN_MOTION_DDOT":0},{"OBJECT_NAME":"HAWK-7C","OBJECT_ID":"2023-054Y","EPOCH":"2026-03-06T05:08:05.132256","MEAN_MOTION":15.2614581,"ECCENTRICITY":0.00038674,"INCLINATION":97.2843,"RA_OF_ASC_NODE":314.1983,"ARG_OF_PERICENTER":59.3604,"MEAN_ANOMALY":300.8015,"EPHEMERIS_TYPE":0,"CLASSIFICATION_TYPE":"U","NORAD_CAT_ID":56200,"ELEMENT_SET_NO":999,"REV_AT_EPOCH":16131,"BSTAR":0.0003045455,"MEAN_MOTION_DOT":7.797e-5,"MEAN_MOTION_DDOT":0}]
