HAWK-6A                 
1 55327U 23011D   26064.86646370  .00007652  00000+0  33774-3 0  9993
2 55327  40.4979 232.7182 0002732 340.8573  19.2133 15.21842490172102
HAWK-7A                 
1 56191U 23054P   26065.27970930  .00007791  00000+0  30426-3 0  9993
2 56191  97.2852 315.2322 0004696  58.8615 301.3084 15.26149549161321
HAWK-7B                 
1 56193U 23054R   26065.21406477  .00008006  00000+0  31265-3 0  9991
2 56193  97.2869 313.3957 0003855  68.9042 291.2609 15.26144489161313
HAWK-7C                 
1 56200U 23054Y   26065.21394829  .00007797  00000+0  30455-3 0  9993
2 56200  97.2843 314.1983 0003867  59.3604 300.8015 15.26145810161310
